{"type": "FeatureCollection", "features": [ {"type": "Feature", "properties": {"norad_id": 32289, "name": "YAOGAN-3", "group": "resource", "lat": 13.153178876506876, "lon": -149.97628340243512, "alt_km": 599.2825918168, "timestamp": "2025-12-27T16:33:29.892492+00:00", "meta": {"OBJECT_NAME": "YAOGAN-3", "OBJECT_ID": "2007-055A", "EPOCH": "2025-12-27T12:35:21.970176", "MEAN_MOTION": 14.89933051, "ECCENTRICITY": 0.0001171, "INCLINATION": 97.8356, "RA_OF_ASC_NODE": 28.0157, "ARG_OF_PERICENTER": 79.1839, "MEAN_ANOMALY": 280.951, "EPHEMERIS_TYPE": 0, "CLASSIFICATION_TYPE": "U", "NORAD_CAT_ID": 32289, "ELEMENT_SET_NO": 999, "REV_AT_EPOCH": 98029, "BSTAR": 0.0004423, "MEAN_MOTION_DOT": 4.203e-05, "MEAN_MOTION_DDOT": 0}, "tle": {"line1": "1 32289U 07055A   25361.52455984  .00004203  00000+0  44230-3 0  9994", "line2": "2 32289  97.8356  28.0157 0001171  79.1839 280.9510 14.89933051980290"}}, "geometry": {"type": "Point", "coordinates": [-149.97628340243512, 13.153178876506876]}}, {"type": "Feature", "properties": {"norad_id": 32376, "name": "COSMO-SKYMED 2", "group": "resource", "lat": 29.347238766539494, "lon": 178.3216234661628, "alt_km": 620.5874253164284, "timestamp": "2025-12-27T16:33:29.892516+00:00", "meta": {"OBJECT_NAME": "COSMO-SKYMED 2", "OBJECT_ID": "2007-059A", "EPOCH": "2025-12-27T14:48:16.889760", "MEAN_MOTION": 14.82156389, "ECCENTRICITY": 0.0001289, "INCLINATION": 97.8813, "RA_OF_ASC_NODE": 182.7167, "ARG_OF_PERICENTER": 83.0799, "MEAN_ANOMALY": 277.0561, "EPHEMERIS_TYPE": 0, "CLASSIFICATION_TYPE": "U", "NORAD_CAT_ID": 32376, "ELEMENT_SET_NO": 999, "REV_AT_EPOCH": 97658, "BSTAR": 0.000102, "MEAN_MOTION_DOT": 7.6e-06, "MEAN_MOTION_DDOT": 0}, "tle": {"line1": "1 32376U 07059A   25361.61686215  .00000760  00000+0  10200-3 0  9992", "line2": "2 32376  97.8813 182.7167 0001289  83.0799 277.0561 14.82156389976587"}}, "geometry": {"type": "Point", "coordinates": [178.3216234661628, 29.347238766539494]}}, {"type": "Feature", "properties": {"norad_id": 32382, "name": "RADARSAT-2", "group": "resource", "lat": 54.59894863801814, "lon": -6.202602878807443, "alt_km": 785.8486105897373, "timestamp": "2025-12-27T16:33:29.892536+00:00", "meta": {"OBJECT_NAME": "RADARSAT-2", "OBJECT_ID": "2007-061A", "EPOCH": "2025-12-27T07:54:11.234880", "MEAN_MOTION": 14.29986441, "ECCENTRICITY": 0.00011454, "INCLINATION": 98.5802, "RA_OF_ASC_NODE": 5.7074, "ARG_OF_PERICENTER": 84.8483, "MEAN_ANOMALY": 275.283, "EPHEMERIS_TYPE": 0, "CLASSIFICATION_TYPE": "U", "NORAD_CAT_ID": 32382, "ELEMENT_SET_NO": 999, "REV_AT_EPOCH": 94139, "BSTAR": 0.00013971797, "MEAN_MOTION_DOT": 3.17e-06, "MEAN_MOTION_DDOT": 0}, "tle": {"line1": "1 32382U 07061A   25361.32929670  .00000317  00000+0  13972-3 0  9992", "line2": "2 32382  98.5802   5.7074 0001145  84.8483 275.2830 14.29986441941392"}}, "geometry": {"type": "Point", "coordinates": [-6.202602878807443, 54.59894863801814]}}, {"type": "Feature", "properties": {"norad_id": 32783, "name": "CARTOSAT-2A", "group": "resource", "lat": -2.9868832938725474, "lon": 51.45361518013589, "alt_km": 630.4167404727032, "timestamp": "2025-12-27T16:33:29.892549+00:00", "meta": {"OBJECT_NAME": "CARTOSAT-2A", "OBJECT_ID": "2008-021A", "EPOCH": "2025-12-27T13:19:27.693696", "MEAN_MOTION": 14.78952326, "ECCENTRICITY": 0.0010874, "INCLINATION": 97.7908, "RA_OF_ASC_NODE": 50.9138, "ARG_OF_PERICENTER": 314.9851, "MEAN_ANOMALY": 45.0479, "EPHEMERIS_TYPE": 0, "CLASSIFICATION_TYPE": "U", "NORAD_CAT_ID": 32783, "ELEMENT_SET_NO": 999, "REV_AT_EPOCH": 95343, "BSTAR": 0.00011042, "MEAN_MOTION_DOT": 7.65e-06, "MEAN_MOTION_DDOT": 0}, "tle": {"line1": "1 32783U 08021A   25361.55518164  .00000765  00000+0  11042-3 0  9994", "line2": "2 32783  97.7908  50.9138 0010874 314.9851  45.0479 14.78952326953432"}}, "geometry": {"type": "Point", "coordinates": [51.45361518013589, -2.9868832938725474]}}, {"type": "Feature", "properties": {"norad_id": 33320, "name": "HUANJING 1A (HJ-1A)", "group": "resource", "lat": 75.22344838784782, "lon": -159.97558439180062, "alt_km": 617.1578205356345, "timestamp": "2025-12-27T16:33:29.892559+00:00", "meta": {"OBJECT_NAME": "HUANJING 1A (HJ-1A)", "OBJECT_ID": "2008-041A", "EPOCH": "2025-12-27T12:51:36.740160", "MEAN_MOTION": 14.83442965, "ECCENTRICITY": 0.0018968, "INCLINATION": 97.6556, "RA_OF_ASC_NODE": 349.2173, "ARG_OF_PERICENTER": 347.0455, "MEAN_ANOMALY": 13.027, "EPHEMERIS_TYPE": 0, "CLASSIFICATION_TYPE": "U", "NORAD_CAT_ID": 33320, "ELEMENT_SET_NO": 999, "REV_AT_EPOCH": 93295, "BSTAR": 0.00029296, "MEAN_MOTION_DOT": 2.362e-05, "MEAN_MOTION_DDOT": 0}, "tle": {"line1": "1 33320U 08041A   25361.53584190  .00002362  00000+0  29296-3 0  9999", "line2": "2 33320  97.6556 349.2173 0018968 347.0455  13.0270 14.83442965932957"}}, "geometry": {"type": "Point", "coordinates": [-159.97558439180062, 75.22344838784782]}}, {"type": "Feature", "properties": {"norad_id": 33321, "name": "HUANJING 1B (HJ-1B)", "group": "resource", "lat": -66.71339267635393, "lon": 11.198519467805347, "alt_km": 630.296024268263, "timestamp": "2025-12-27T16:33:29.892571+00:00", "meta": {"OBJECT_NAME": "HUANJING 1B (HJ-1B)", "OBJECT_ID": "2008-041B", "EPOCH": "2025-12-27T13:37:27.381792", "MEAN_MOTION": 14.82861912, "ECCENTRICITY": 0.0037632, "INCLINATION": 97.6414, "RA_OF_ASC_NODE": 352.9057, "ARG_OF_PERICENTER": 28.686, "MEAN_ANOMALY": 331.6413, "EPHEMERIS_TYPE": 0, "CLASSIFICATION_TYPE": "U", "NORAD_CAT_ID": 33321, "ELEMENT_SET_NO": 999, "REV_AT_EPOCH": 93297, "BSTAR": 0.00019347, "MEAN_MOTION_DOT": 1.534e-05, "MEAN_MOTION_DDOT": 0}, "tle": {"line1": "1 33321U 08041B   25361.56767803  .00001534  00000+0  19347-3 0  9993", "line2": "2 33321  97.6414 352.9057 0037632  28.6860 331.6413 14.82861912932970"}}, "geometry": {"type": "Point", "coordinates": [11.198519467805347, -66.71339267635393]}}, {"type": "Feature", "properties": {"norad_id": 33331, "name": "GEOEYE 1", "group": "resource", "lat": 25.46294892048099, "lon": 68.88092336279269, "alt_km": 679.296919948536, "timestamp": "2025-12-27T16:33:29.892581+00:00", "meta": {"OBJECT_NAME": "GEOEYE 1", "OBJECT_ID": "2008-042A", "EPOCH": "2025-12-27T11:31:21.136800", "MEAN_MOTION": 14.64720256, "ECCENTRICITY": 0.0003115, "INCLINATION": 98.1235, "RA_OF_ASC_NODE": 72.5738, "ARG_OF_PERICENTER": 221.6064, "MEAN_ANOMALY": 138.4902, "EPHEMERIS_TYPE": 0, "CLASSIFICATION_TYPE": "U", "NORAD_CAT_ID": 33331, "ELEMENT_SET_NO": 999, "REV_AT_EPOCH": 92501, "BSTAR": 0.00013581, "MEAN_MOTION_DOT": 6.76e-06, "MEAN_MOTION_DDOT": 0}, "tle": {"line1": "1 33331U 08042A   25361.48010575  .00000676  00000+0  13581-3 0  9993", "line2": "2 33331  98.1235  72.5738 0003115 221.6064 138.4902 14.64720256925017"}}, "geometry": {"type": "Point", "coordinates": [68.88092336279269, 25.46294892048099]}}, {"type": "Feature", "properties": {"norad_id": 33396, "name": "THEOS", "group": "resource", "lat": 4.30828582531839, "lon": 58.68486824583101, "alt_km": 827.30128962648, "timestamp": "2025-12-27T16:33:29.892592+00:00", "meta": {"OBJECT_NAME": "THEOS", "OBJECT_ID": "2008-049A", "EPOCH": "2025-12-27T11:27:53.671392", "MEAN_MOTION": 14.20100118, "ECCENTRICITY": 0.0001213, "INCLINATION": 98.5843, "RA_OF_ASC_NODE": 59.131, "ARG_OF_PERICENTER": 91.6836, "MEAN_ANOMALY": 268.448, "EPHEMERIS_TYPE": 0, "CLASSIFICATION_TYPE": "U", "NORAD_CAT_ID": 33396, "ELEMENT_SET_NO": 999, "REV_AT_EPOCH": 89359, "BSTAR": 8.9433e-05, "MEAN_MOTION_DOT": 1.48e-06, "MEAN_MOTION_DDOT": 0}, "tle": {"line1": "1 33396U 08049A   25361.47770453  .00000148  00000+0  89433-4 0  9992", "line2": "2 33396  98.5843  59.1310 0001213  91.6836 268.4480 14.20100118893596"}}, "geometry": {"type": "Point", "coordinates": [58.68486824583101, 4.30828582531839]}}, {"type": "Feature", "properties": {"norad_id": 33412, "name": "COSMO-SKYMED 3", "group": "resource", "lat": -3.5577765808311543, "lon": -147.17467105983698, "alt_km": 560.7421271471931, "timestamp": "2025-12-27T16:33:29.892603+00:00", "meta": {"OBJECT_NAME": "COSMO-SKYMED 3", "OBJECT_ID": "2008-054A", "EPOCH": "2025-12-27T13:23:02.059008", "MEAN_MOTION": 15.05481738, "ECCENTRICITY": 0.0017071, "INCLINATION": 97.8451, "RA_OF_ASC_NODE": 212.1997, "ARG_OF_PERICENTER": 124.5952, "MEAN_ANOMALY": 235.6887, "EPHEMERIS_TYPE": 0, "CLASSIFICATION_TYPE": "U", "NORAD_CAT_ID": 33412, "ELEMENT_SET_NO": 999, "REV_AT_EPOCH": 93110, "BSTAR": 0.00025041, "MEAN_MOTION_DOT": 3.545e-05, "MEAN_MOTION_DDOT": 0}, "tle": {"line1": "1 33412U 08054A   25361.55766272  .00003545  00000+0  25041-3 0  9998", "line2": "2 33412  97.8451 212.1997 0017071 124.5952 235.6887 15.05481738931109"}}, "geometry": {"type": "Point", "coordinates": [-147.17467105983698, -3.5577765808311543]}}, {"type": "Feature", "properties": {"norad_id": 33446, "name": "YAOGAN-4", "group": "resource", "lat": -16.982718982167317, "lon": 109.20718691158378, "alt_km": 623.0325364753398, "timestamp": "2025-12-27T16:33:29.892614+00:00", "meta": {"OBJECT_NAME": "YAOGAN-4", "OBJECT_ID": "2008-061A", "EPOCH": "2025-12-27T09:11:33.320256", "MEAN_MOTION": 14.82726039, "ECCENTRICITY": 0.0012973, "INCLINATION": 97.9199, "RA_OF_ASC_NODE": 291.3399, "ARG_OF_PERICENTER": 271.2097, "MEAN_ANOMALY": 88.763, "EPHEMERIS_TYPE": 0, "CLASSIFICATION_TYPE": "U", "NORAD_CAT_ID": 33446, "ELEMENT_SET_NO": 999, "REV_AT_EPOCH": 92020, "BSTAR": 0.00020996, "MEAN_MOTION_DOT": 1.643e-05, "MEAN_MOTION_DDOT": 0}, "tle": {"line1": "1 33446U 08061A   25361.38302454  .00001643  00000+0  20996-3 0  9993", "line2": "2 33446  97.9199 291.3399 0012973 271.2097  88.7630 14.82726039920209"}}, "geometry": {"type": "Point", "coordinates": [109.20718691158378, -16.982718982167317]}}]}